SAUDISAT 1C (SO-50)     
1 27607U 02058C   26073.27104551  .00002083  00000+0  26271-3 0  9993
2 27607  64.5526  62.6028 0075307 279.8659  79.3951 14.82804742250386
SAUDISAT 2              
1 28371U 04025F   26073.57921127  .00000418  00000+0  10446-3 0  9994
2 28371  98.5500  71.1267 0023853 225.4927 134.4321 14.56621250151979
SAUDISAT 3              
1 31118U 07012B   26073.39374263  .00000414  00000+0  75030-4 0  9996
2 31118  98.1354  23.7917 0014939 163.9543 196.2139 14.71358590 13808
PISAT                   
1 41784U 16059B   26073.52586534  .00001370  00000+0  24122-3 0  9995
2 41784  97.8192  78.0580 0029913 145.6167 214.6983 14.68788005505846
FLYING LAPTOP           
1 42831U 17042G   26073.64602280  .00002846  00000+0  22923-3 0  9998
2 42831  97.4279 233.0997 0019632  79.8881 280.4557 15.00553935472272
SALSAT                  
1 46495U 20068K   26073.51831201  .00012617  00000+0  46004-3 0  9996
2 46495  97.8858  70.9296 0008068 275.9056  84.1263 15.28293668300898
