[{"OBJECT_NAME":"SAUDISAT 1C (SO-50)","OBJECT_ID":"2002-058C","EPOCH":"2026-03-14T06:30:18.332064","MEAN_MOTION":14.82804742,"ECCENTRICITY":0.00753077,"INCLINATION":64.5526,"RA_OF_ASC_NODE":62.6028,"ARG_OF_PERICENTER":279.8659,"MEAN_ANOMALY":79.3951,"EPHEMERIS_TYPE":0,"CLASSIFICATION_TYPE":"U","NORAD_CAT_ID":27607,"ELEMENT_SET_NO":999,"REV_AT_EPOCH":25038,"BSTAR":0.00026270512,"MEAN_MOTION_DOT":2.083e-5,"MEAN_MOTION_DDOT":0},{"OBJECT_NAME":"SAUDISAT 2","OBJECT_ID":"2004-025F","EPOCH":"2026-03-14T13:54:03.853728","MEAN_MOTION":14.5662125,"ECCENTRICITY":0.00238537,"INCLINATION":98.55,"RA_OF_ASC_NODE":71.1267,"ARG_OF_PERICENTER":225.4927,"MEAN_ANOMALY":134.4321,"EPHEMERIS_TYPE":0,"CLASSIFICATION_TYPE":"U","NORAD_CAT_ID":28371,"ELEMENT_SET_NO":999,"REV_AT_EPOCH":15197,"BSTAR":0.00010446094,"MEAN_MOTION_DOT":4.18e-6,"MEAN_MOTION_DDOT":0},{"OBJECT_NAME":"SAUDISAT 3","OBJECT_ID":"2007-012B","EPOCH":"2026-03-14T09:26:59.363232","MEAN_MOTION":14.7135859,"ECCENTRICITY":0.00149391,"INCLINATION":98.1354,"RA_OF_ASC_NODE":23.7917,"ARG_OF_PERICENTER":163.9543,"MEAN_ANOMALY":196.2139,"EPHEMERIS_TYPE":0,"CLASSIFICATION_TYPE":"U","NORAD_CAT_ID":31118,"ELEMENT_SET_NO":999,"REV_AT_EPOCH":1380,"BSTAR":7.5029796e-5,"MEAN_MOTION_DOT":4.14e-6,"MEAN_MOTION_DDOT":0},{"OBJECT_NAME":"PISAT","OBJECT_ID":"2016-059B","EPOCH":"2026-03-14T12:37:14.765376","MEAN_MOTION":14.68788005,"ECCENTRICITY":0.00299134,"INCLINATION":97.8192,"RA_OF_ASC_NODE":78.058,"ARG_OF_PERICENTER":145.6167,"MEAN_ANOMALY":214.6983,"EPHEMERIS_TYPE":0,"CLASSIFICATION_TYPE":"U","NORAD_CAT_ID":41784,"ELEMENT_SET_NO":999,"REV_AT_EPOCH":50584,"BSTAR":0.00024122141,"MEAN_MOTION_DOT":1.37e-5,"MEAN_MOTION_DDOT":0},{"OBJECT_NAME":"FLYING LAPTOP","OBJECT_ID":"2017-042G","EPOCH":"2026-03-14T15:30:16.369920","MEAN_MOTION":15.00553935,"ECCENTRICITY":0.00196324,"INCLINATION":97.4279,"RA_OF_ASC_NODE":233.0997,"ARG_OF_PERICENTER":79.8881,"MEAN_ANOMALY":280.4557,"EPHEMERIS_TYPE":0,"CLASSIFICATION_TYPE":"U","NORAD_CAT_ID":42831,"ELEMENT_SET_NO":999,"REV_AT_EPOCH":47227,"BSTAR":0.00022923156,"MEAN_MOTION_DOT":2.846e-5,"MEAN_MOTION_DDOT":0},{"OBJECT_NAME":"SALSAT","OBJECT_ID":"2020-068K","EPOCH":"2026-03-14T12:26:22.157664","MEAN_MOTION":15.28293668,"ECCENTRICITY":0.00080685,"INCLINATION":97.8858,"RA_OF_ASC_NODE":70.9296,"ARG_OF_PERICENTER":275.9056,"MEAN_ANOMALY":84.1263,"EPHEMERIS_TYPE":0,"CLASSIFICATION_TYPE":"U","NORAD_CAT_ID":46495,"ELEMENT_SET_NO":999,"REV_AT_EPOCH":30089,"BSTAR":0.00046003648,"MEAN_MOTION_DOT":0.00012617,"MEAN_MOTION_DDOT":0}]
